CSS (TIANHE)            
1 48274U 21035A   24118.44050188  .00054863  00000+0  59183-3 0  9996
2 48274  41.4693  33.0831 0004332 276.0244  84.0102 15.62776353171154
